[{"OBJECT_NAME":"FLOCK 4BE-28","OBJECT_ID":"2024-149BD","EPOCH":"2026-03-03T21:03:05.649408","MEAN_MOTION":15.40681776,"ECCENTRICITY":0.00035278,"INCLINATION":97.3795,"RA_OF_ASC_NODE":147.3261,"ARG_OF_PERICENTER":311.8906,"MEAN_ANOMALY":48.2039,"EPHEMERIS_TYPE":0,"CLASSIFICATION_TYPE":"U","NORAD_CAT_ID":60519,"ELEMENT_SET_NO":999,"REV_AT_EPOCH":8620,"BSTAR":0.0007842281,"MEAN_MOTION_DOT":0.00032012,"MEAN_MOTION_DDOT":0},{"OBJECT_NAME":"FLOCK 4BE-35","OBJECT_ID":"2024-149CU","EPOCH":"2026-03-03T19:22:18.381216","MEAN_MOTION":15.42369215,"ECCENTRICITY":0.00045015,"INCLINATION":97.3802,"RA_OF_ASC_NODE":145.9753,"ARG_OF_PERICENTER":278.2277,"MEAN_ANOMALY":81.8459,"EPHEMERIS_TYPE":0,"CLASSIFICATION_TYPE":"U","NORAD_CAT_ID":60558,"ELEMENT_SET_NO":999,"REV_AT_EPOCH":8609,"BSTAR":0.0027194742,"MEAN_MOTION_DOT":0.00118954,"MEAN_MOTION_DDOT":0},{"OBJECT_NAME":"FLOCK 4BE-5","OBJECT_ID":"2024-149CV","EPOCH":"2026-03-03T19:15:01.087488","MEAN_MOTION":15.36715336,"ECCENTRICITY":0.00025124,"INCLINATION":97.3893,"RA_OF_ASC_NODE":146.0364,"ARG_OF_PERICENTER":321.2632,"MEAN_ANOMALY":38.8432,"EPHEMERIS_TYPE":0,"CLASSIFICATION_TYPE":"U","NORAD_CAT_ID":60559,"ELEMENT_SET_NO":999,"REV_AT_EPOCH":8607,"BSTAR":0.00073886359,"MEAN_MOTION_DOT":0.00026479,"MEAN_MOTION_DDOT":0},{"OBJECT_NAME":"FLOCK 4BE-12","OBJECT_ID":"2024-149CW","EPOCH":"2026-03-03T18:36:45.057600","MEAN_MOTION":15.4521572,"ECCENTRICITY":0.00056889,"INCLINATION":97.3775,"RA_OF_ASC_NODE":146.6463,"ARG_OF_PERICENTER":281.9604,"MEAN_ANOMALY":78.1007,"EPHEMERIS_TYPE":0,"CLASSIFICATION_TYPE":"U","NORAD_CAT_ID":60560,"ELEMENT_SET_NO":999,"REV_AT_EPOCH":8615,"BSTAR":0.0027894144,"MEAN_MOTION_DOT":0.0013457,"MEAN_MOTION_DDOT":0},{"OBJECT_NAME":"FLOCK 4BE-3","OBJECT_ID":"2024-149CX","EPOCH":"2026-03-03T19:25:24.386592","MEAN_MOTION":15.3793057,"ECCENTRICITY":0.00031266,"INCLINATION":97.3756,"RA_OF_ASC_NODE":145.9676,"ARG_OF_PERICENTER":307.5229,"MEAN_ANOMALY":52.5731,"EPHEMERIS_TYPE":0,"CLASSIFICATION_TYPE":"U","NORAD_CAT_ID":60561,"ELEMENT_SET_NO":999,"REV_AT_EPOCH":8612,"BSTAR":0.00065576716,"MEAN_MOTION_DOT":0.00024427,"MEAN_MOTION_DDOT":0},{"OBJECT_NAME":"FLOCK 4BE-19","OBJECT_ID":"2024-149CZ","EPOCH":"2026-03-03T18:13:16.073184","MEAN_MOTION":15.40026888,"ECCENTRICITY":0.0003158,"INCLINATION":97.3796,"RA_OF_ASC_NODE":146.9996,"ARG_OF_PERICENTER":313.3149,"MEAN_ANOMALY":46.7833,"EPHEMERIS_TYPE":0,"CLASSIFICATION_TYPE":"U","NORAD_CAT_ID":60563,"ELEMENT_SET_NO":999,"REV_AT_EPOCH":8617,"BSTAR":0.00068373141,"MEAN_MOTION_DOT":0.00027286,"MEAN_MOTION_DDOT":0},{"OBJECT_NAME":"PELICAN-2","OBJECT_ID":"2025-009Y","EPOCH":"2026-03-03T19:32:31.804800","MEAN_MOTION":15.40264363,"ECCENTRICITY":0.00073246,"INCLINATION":97.4015,"RA_OF_ASC_NODE":153.05,"ARG_OF_PERICENTER":223.2273,"MEAN_ANOMALY":136.8399,"EPHEMERIS_TYPE":0,"CLASSIFICATION_TYPE":"U","NORAD_CAT_ID":62631,"ELEMENT_SET_NO":999,"REV_AT_EPOCH":6333,"BSTAR":0.0022354114,"MEAN_MOTION_DOT":0.00090906,"MEAN_MOTION_DDOT":0},{"OBJECT_NAME":"PELICAN-3","OBJECT_ID":"2025-188A","EPOCH":"2026-03-03T19:54:40.552992","MEAN_MOTION":15.40671816,"ECCENTRICITY":0.00032338,"INCLINATION":97.2232,"RA_OF_ASC_NODE":140.443,"ARG_OF_PERICENTER":204.981,"MEAN_ANOMALY":155.1281,"EPHEMERIS_TYPE":0,"CLASSIFICATION_TYPE":"U","NORAD_CAT_ID":65315,"ELEMENT_SET_NO":999,"REV_AT_EPOCH":2909,"BSTAR":0.00011106798,"MEAN_MOTION_DOT":4.447e-5,"MEAN_MOTION_DDOT":0},{"OBJECT_NAME":"PELICAN-4","OBJECT_ID":"2025-188B","EPOCH":"2026-03-03T15:36:35.924256","MEAN_MOTION":15.40597242,"ECCENTRICITY":0.00060079,"INCLINATION":97.2308,"RA_OF_ASC_NODE":140.3551,"ARG_OF_PERICENTER":111.7293,"MEAN_ANOMALY":248.4594,"EPHEMERIS_TYPE":0,"CLASSIFICATION_TYPE":"U","NORAD_CAT_ID":65316,"ELEMENT_SET_NO":999,"REV_AT_EPOCH":2906,"BSTAR":0.00031636174,"MEAN_MOTION_DOT":0.00012803,"MEAN_MOTION_DDOT":0}]
