FLOCK 4BE-28            
1 60519U 24149BD  26062.87714872  .00032012  00000+0  78423-3 0  9995
2 60519  97.3795 147.3261 0003527 311.8906  48.2039 15.40681776 86209
FLOCK 4BE-35            
1 60558U 24149CU  26062.80715719  .00118954  00000+0  27195-2 0  9991
2 60558  97.3802 145.9753 0004501 278.2277  81.8459 15.42369215 86090
FLOCK 4BE-5             
1 60559U 24149CV  26062.80209592  .00026479  00000+0  73886-3 0  9998
2 60559  97.3893 146.0364 0002512 321.2632  38.8432 15.36715336 86078
FLOCK 4BE-12            
1 60560U 24149CW  26062.77552150  .00134570  00000+0  27894-2 0  9996
2 60560  97.3775 146.6463 0005688 281.9604  78.1007 15.45215720 86159
FLOCK 4BE-3             
1 60561U 24149CX  26062.80931003  .00024427  00000+0  65577-3 0  9999
2 60561  97.3756 145.9676 0003126 307.5229  52.5731 15.37930570 86125
FLOCK 4BE-19            
1 60563U 24149CZ  26062.75921381  .00027286  00000+0  68373-3 0  9996
2 60563  97.3796 146.9996 0003158 313.3149  46.7833 15.40026888 86173
PELICAN-2               
1 62631U 25009Y   26062.81425700  .00090906  00000+0  22354-2 0  9998
2 62631  97.4015 153.0500 0007324 223.2273 136.8399 15.40264363 63335
PELICAN-3               
1 65315U 25188A   26062.82963603  .00004447  00000+0  11107-3 0  9998
2 65315  97.2232 140.4430 0003233 204.9810 155.1281 15.40671816 29090
PELICAN-4               
1 65316U 25188B   26062.65041579  .00012803  00000+0  31636-3 0  9993
2 65316  97.2308 140.3551 0006007 111.7293 248.4594 15.40597242 29060
